<?xml version="1.0" encoding="UTF-8"?>
<kml xmlns="http://www.opengis.net/kml/2.2" xmlns:gx="http://www.google.com/kml/ext/2.2">
	<Document id="1">
		<Style id="2">
			<LineStyle id="9">
				<color>FF61A692</color>
				<colorMode>normal</colorMode>
			</LineStyle>
			<PolyStyle id="16">
				<color>FF61A692</color>
				<colorMode>normal</colorMode>
				<fill>1</fill>
				<outline>1</outline>
			</PolyStyle>
		</Style>
		<Style id="3">
			<LineStyle id="10">
				<color>FFED8A2F</color>
				<colorMode>normal</colorMode>
			</LineStyle>
			<PolyStyle id="17">
				<color>FFED8A2F</color>
				<colorMode>normal</colorMode>
				<fill>1</fill>
				<outline>1</outline>
			</PolyStyle>
		</Style>
		<Style id="4">
			<LineStyle id="11">
				<color>FF113065</color>
				<colorMode>normal</colorMode>
			</LineStyle>
			<PolyStyle id="18">
				<color>FF113065</color>
				<colorMode>normal</colorMode>
				<fill>1</fill>
				<outline>1</outline>
			</PolyStyle>
		</Style>
		<Style id="5">
			<LineStyle id="12">
				<color>FF6A7180</color>
				<colorMode>normal</colorMode>
			</LineStyle>
			<PolyStyle id="19">
				<color>FF6A7180</color>
				<colorMode>normal</colorMode>
				<fill>1</fill>
				<outline>1</outline>
			</PolyStyle>
		</Style>
		<Style id="6">
			<LineStyle id="13">
				<color>FF62A5D4</color>
				<colorMode>normal</colorMode>
			</LineStyle>
			<PolyStyle id="20">
				<color>FF62A5D4</color>
				<colorMode>normal</colorMode>
				<fill>1</fill>
				<outline>1</outline>
			</PolyStyle>
		</Style>
		<Style id="7">
			<LineStyle id="14">
				<color>FFD65C5C</color>
				<colorMode>normal</colorMode>
			</LineStyle>
			<PolyStyle id="21">
				<color>FFD65C5C</color>
				<colorMode>normal</colorMode>
				<fill>1</fill>
				<outline>1</outline>
			</PolyStyle>
		</Style>
		<Style id="8">
			<LineStyle id="15">
				<color>FF2F80ED</color>
				<colorMode>normal</colorMode>
			</LineStyle>
			<PolyStyle id="22">
				<color>FF2F80ED</color>
				<colorMode>normal</colorMode>
				<fill>1</fill>
				<outline>1</outline>
			</PolyStyle>
		</Style>
		<open>1</open>
		<Placemark id="40">
			<name>fw2kml - Flight 0</name>
			<styleUrl>#2</styleUrl>
			<LineString id="60">
				<extrude>1</extrude>
				<altitudeMode>absolute</altitudeMode>
				<coordinates>-99.33435059,33.49816513,415.2410 -99.33435059,33.49816513,415.2370 -99.33435059,33.49816513,415.2330 -99.33435059,33.49816513,415.2330 -99.33435059,33.49816513,415.2380 -99.33435059,33.49816513,415.2320 -99.33435059,33.49816513,415.2390 -99.33435059,33.49816513,415.2430 -99.33435059,33.49816513,415.2360 -99.33435059,33.49816513,415.2460 -99.33435059,33.49816513,415.2480 -99.33435059,33.49816513,415.2550 -99.33435059,33.49816513,415.2570 -99.33435059,33.49816513,415.2570 -99.33435059,33.49816513,415.2610 -99.33435059,33.49816513,415.2660 -99.33435059,33.49816513,415.2600 -99.33435059,33.49816513,415.2620 -99.33435059,33.49816513,415.2580 -99.33435059,33.49816513,415.2570 -99.33435059,33.49816513,415.2580 -99.33435059,33.49816513,415.2640 -99.33435059,33.49816513,415.2690 -99.33435059,33.49816513,415.2650 -99.33435059,33.49816513,415.2650 -99.33435059,33.49816513,415.2600 -99.33435059,33.49816513,415.2650 -99.33435059,33.49816513,415.2670 -99.33435059,33.49816513,415.2640 -99.33435059,33.49816513,415.2890 -99.33435059,33.49816513,415.3750 -99.33435059,33.49816513,416.0960 -99.33435059,33.49816513,418.3660 -99.33434296,33.49816132,422.1630 -99.33434296,33.49816513,427.0020 -99.33433533,33.49816513,432.8480 -99.33432007,33.49816132,440.2700 -99.33430481,33.49815369,449.0030 -99.33428192,33.49814224,458.9620 -99.33425140,33.49812698,469.7740 -99.33422089,33.49811172,481.6690 -99.33418274,33.49808884,494.7060 -99.33413696,33.49806213,508.9490 -99.33409119,33.49803543,524.3960 -99.33404541,33.49800873,540.8760 -99.33399200,33.49797440,558.2900 -99.33393097,33.49793625,576.7170 -99.33386993,33.49789429,596.1850 -99.33380890,33.49785614,617.2620 -99.33374023,33.49781418,639.0390 -99.33367157,33.49776459,661.9500 -99.33360291,33.49771881,685.8360 -99.33353424,33.49766541,710.4030 -99.33345795,33.49761200,735.4471 -99.33337402,33.49755478,761.4150 -99.33329010,33.49749374,788.2810 -99.33320618,33.49742889,815.9320 -99.33311462,33.49736404,844.4650 -99.33302307,33.49729919,873.7201 -99.33293152,33.49722672,903.4310 -99.33283997,33.49715424,933.7221 -99.33274078,33.49707794,964.0920 -99.33264160,33.49700546,994.6981 -99.33254242,33.49693298,1025.7290 -99.33244324,33.49685669,1056.4140 -99.33234406,33.49678421,1086.3251 -99.33224487,33.49671173,1115.8660 -99.33215332,33.49663544,1144.7210 -99.33205414,33.49656296,1173.3860 -99.33196259,33.49649429,1201.6550 -99.33187103,33.49642563,1229.6410 -99.33177948,33.49635315,1257.4011 -99.33168793,33.49628448,1284.5820 -99.33159637,33.49621582,1311.6361 -99.33150482,33.49615097,1338.3680 -99.33141327,33.49608231,1364.8481 -99.33132172,33.49601746,1391.0541 -99.33123016,33.49595261,1417.0081 -99.33114624,33.49588776,1442.6101 -99.33105469,33.49582291,1467.9080 -99.33097076,33.49575806,1493.1201 -99.33087921,33.49569321,1518.1231 -99.33079529,33.49563217,1542.8421 -99.33070374,33.49556732,1567.2191 -99.33061981,33.49550629,1591.4221 -99.33053589,33.49544525,1615.3660 -99.33044434,33.49538422,1639.0421 -99.33036041,33.49532318,1662.4530 -99.33027649,33.49526215,1685.6531 -99.33019257,33.49520111,1708.6311 -99.33010864,33.49514008,1731.3780 -99.33003235,33.49508286,1753.9481 -99.32994843,33.49502182,1776.3790 -99.32986450,33.49496460,1798.4550 -99.32978058,33.49490738,1820.3171 -99.32969666,33.49484634,1841.9621 -99.32962036,33.49478912,1863.5140 -99.32953644,33.49473190,1884.8491 -99.32946014,33.49467850,1905.9781 -99.32937622,33.49462128,1926.9130 -99.32929993,33.49456406,1947.6230 -99.32921600,33.49450684,1968.1140 -99.32913971,33.49445343,1988.4191 -99.32906342,33.49437332,2008.5961 -99.32897949,33.49434280,2028.5211 -99.32890320,33.49428940,2048.1951 -99.32882690,33.49423599,2067.7031 -99.32875061,33.49418259,2087.1040 -99.32867432,33.49412918,2106.3080 -99.32859802,33.49407578,2125.3250 -99.32852173,33.49402237,2144.1431 -99.32844543,33.49396896,2162.8090 -99.32836914,33.49391556,2181.3021 -99.32829285,33.49386215,2199.6681 -99.32821655,33.49381256,2217.8671 -99.32814026,33.49375916,2235.7811 -99.32807159,33.49370956,2253.5651 -99.32799530,33.49365616,2271.1161 -99.32791901,33.49360657,2288.4650 -99.32785034,33.49355316,2305.6450 -99.32777405,33.49350357,2322.6351 -99.32770538,33.49345398,2339.4281 -99.32762909,33.49340439,2356.0541 -99.32755280,33.49335480,2372.5141 -99.32748413,33.49330139,2388.8350 -99.32740784,33.49325180,2405.0661 -99.32733917,33.49320221,2421.1691 -99.32726288,33.49315262,2437.0900 -99.32719421,33.49310684,2452.8521 -99.32712555,33.49305725,2468.5081 -99.32698059,33.49295807,2499.3752 -99.32691193,33.49291229,2514.5961 -99.32684326,33.49286270,2529.6090 -99.32676697,33.49281311,2544.4731 -99.32669830,33.49276733,2559.1710 -99.32662964,33.49271774,2573.6970 -99.32656097,33.49267197,2588.1092 -99.32649231,33.49262619,2602.3761 -99.32642365,33.49257660,2616.4731 -99.32635498,33.49253082,2630.4282 -99.32628632,33.49248123,2644.2061 -99.32621765,33.49243546,2657.8119 -99.32614899,33.49237823,2671.3160 -99.32608032,33.49234390,2684.6891 -99.32601166,33.49229431,2697.9042 -99.32595062,33.49224854,2711.0129 -99.32588196,33.49220276,2723.9800 -99.32581329,33.49215698,2736.8712 -99.32574463,33.49211121,2749.6362 -99.32567596,33.49206543,2762.2161 -99.32561493,33.49201965,2774.6861 -99.32554626,33.49197388,2787.0272 -99.32547760,33.49193192,2799.1850 -99.32541656,33.49188614,2811.1981 -99.32534790,33.49184036,2823.0332 -99.32528687,33.49179459,2834.7111 -99.32521820,33.49175262,2846.3040 -99.32515717,33.49170685,2857.7402 -99.32508850,33.49166107,2869.0672 -99.32501984,33.49161911,2880.2561 -99.32495880,33.49157333,2891.3200 -99.32489777,33.49152756,2902.2642 -99.32482910,33.49148178,2913.0632 -99.32476807,33.49143982,2923.7321 -99.32469940,33.49139786,2934.3060 -99.32463837,33.49135208,2944.7931 -99.32457733,33.49131012,2955.1801 -99.32450867,33.49126434,2965.4641 -99.32444763,33.49122238,2975.6240 -99.32438660,33.49118042,2985.6410 -99.32431793,33.49113464,2995.5461 -99.32425690,33.49109268,3005.3101 -99.32419586,33.49104691,3014.9500 -99.32413483,33.49100876,3024.4670 -99.32407379,33.49096298,3033.8601 -99.32400513,33.49092102,3043.1330 -99.32394409,33.49087906,3052.2791 -99.32388306,33.49083710,3061.3020 -99.32382202,33.49079514,3070.2340 -99.32376099,33.49075317,3079.0482 -99.32369995,33.49071121,3087.7481 -99.32363892,33.49066925,3096.3102 -99.32357788,33.49061203,3104.7562 -99.32351685,33.49058533,3113.1132 -99.32345581,33.49054337,3121.3610 -99.32339478,33.49050140,3129.4751 -99.32333374,33.49045944,3137.4540 -99.32327271,33.49041748,3145.3092 -99.32321167,33.49037552,3153.0340 -99.32315063,33.49033356,3160.6510 -99.32308960,33.49029160,3168.1400 -99.32302856,33.49025345,3175.5341 -99.32297516,33.49021149,3182.8451 -99.32291412,33.49016953,3190.0172 -99.32285309,33.49012756,3197.0981 -99.32279205,33.49008560,3204.0451 -99.32273102,33.49004745,3210.8641 -99.32266998,33.49000549,3217.5870 -99.32261658,33.48996353,3224.2211 -99.32255554,33.48992538,3230.7461 -99.32249451,33.48988342,3237.1790 -99.32243347,33.48984528,3243.5241 -99.32238007,33.48980331,3249.7502 -99.32231903,33.48976135,3255.8551 -99.32225800,33.48972321,3261.8452 -99.32220459,33.48968124,3267.7301 -99.32214355,33.48964310,3273.5082 -99.32208252,33.48960114,3279.1991 -99.32196808,33.48952103,3290.2472 -99.32190704,33.48948288,3295.6152 -99.32185364,33.48944092,3300.8932 -99.32179260,33.48940277,3306.0662 -99.32173157,33.48936081,3311.1451 -99.32167816,33.48932266,3316.1171 -99.32161713,33.48928452,3320.9740 -99.32156372,33.48924255,3325.7091 -99.32150269,33.48920441,3330.3350 -99.32144928,33.48916626,3334.8582 -99.32138824,33.48912430,3339.2650 -99.32133484,33.48908615,3343.5852 -99.32127380,33.48904800,3347.8220 -99.32122040,33.48900604,3351.9341 -99.32099152,33.48884964,3367.2402 -99.32093048,33.48881149,3370.8341 -99.32087708,33.48877335,3374.3232 -99.32081604,33.48873520,3377.7001 -99.32076263,33.48869705,3381.0003 -99.32070923,33.48865509,3384.2051 -99.32064819,33.48861694,3387.2930 -99.32059479,33.48857880,3390.2770 -99.32053375,33.48854065,3393.1440 -99.32048035,33.48850250,3395.9232 -99.32042694,33.48846436,3398.6260 -99.32036591,33.48842621,3401.2281 -99.32031250,33.48838806,3403.7171 -99.32025909,33.48834610,3406.1212 -99.32019806,33.48830795,3408.4311 -99.32014465,33.48826981,3410.6602 -99.32009125,33.48823166,3412.7771 -99.32003021,33.48819351,3414.7801 -99.31997681,33.48815536,3416.6892 -99.31992340,33.48811722,3418.4990 -99.31986237,33.48807907,3420.1971 -99.31980896,33.48804092,3421.7923 -99.31975555,33.48800278,3423.3002 -99.31970215,33.48796463,3424.6992 -99.31964111,33.48792648,3425.9961 -99.31958771,33.48788834,3427.2001 -99.31953430,33.48785019,3428.2901 -99.31948090,33.48781204,3429.2902 -99.31941986,33.48777771,3430.1921 -99.31936646,33.48773956,3430.9851 -99.31931305,33.48770142,3431.6852 -99.31925964,33.48766327,3432.2751 -99.31920624,33.48762512,3432.7811 -99.31914520,33.48758698,3433.1871 -99.31909180,33.48754883,3433.4910 -99.31903839,33.48751450,3433.6982 -99.31898499,33.48747635,3433.8191 -99.31893158,33.48743820,3433.8262 -99.31887817,33.48740005,3433.7521 -99.31882477,33.48736191,3433.5601 -99.31876373,33.48732758,3433.2812 -99.31871033,33.48728943,3432.9091 -99.31865692,33.48725128,3432.4361 -99.31860352,33.48721313,3431.8870 -99.31855011,33.48717880,3431.2321 -99.31849670,33.48714066,3430.4901 -99.31844330,33.48707962,3429.6551 -99.31838989,33.48706818,3428.7142 -99.31833649,33.48703003,3427.6790 -99.31828308,33.48699188,3426.5250 -99.31822968,33.48695374,3425.3010 -99.31816864,33.48691940,3424.0160 -99.31811523,33.48688126,3422.6120 -99.31806183,33.48684311,3421.1041 -99.31800842,33.48680878,3419.4821 -99.31795502,33.48677063,3417.7712 -99.31790161,33.48673630,3415.9451 -99.31784821,33.48669815,3414.0300 -99.31779480,33.48666000,3412.0520 -99.31732941,33.48634338,3390.5812 -99.31684875,33.48603821,3361.0972 -99.31646729,33.48582458,3335.3752 -99.31623840,33.48565292,3313.3671 -99.31608582,33.48554230,3288.9381 -99.31595612,33.48545074,3264.0931 -99.31586456,33.48539352,3235.2410 -99.31576538,33.48534012,3206.3582 -99.31568146,33.48530197,3175.8091 -99.31558990,33.48526382,3146.4242 -99.31549835,33.48522949,3115.8180 -99.31538391,33.48518372,3085.1112 -99.31519318,33.48511505,3024.8781 -99.31510162,33.48510742,2994.6752 -99.31499481,33.48511124,2964.7521 -99.31488037,33.48509979,2933.7280 -99.31477356,33.48506165,2902.4872 -99.31466675,33.48501968,2873.2061 -99.31457520,33.48497772,2842.7532 -99.31446838,33.48492813,2813.5540 -99.31439972,33.48488617,2784.1751 -99.31432343,33.48484039,2755.8912 -99.31427002,33.48479462,2726.5982 -99.31422424,33.48474503,2697.6342 -99.31418610,33.48469925,2667.6560 -99.31416321,33.48466110,2637.5621 -99.31415558,33.48463821,2606.3811 -99.31414032,33.48463821,2575.0242 -99.31413269,33.48464203,2543.9430 -99.31412506,33.48465729,2513.1260 -99.31412506,33.48466110,2482.7551 -99.31411743,33.48468399,2451.9451 -99.31411743,33.48470306,2420.4811 -99.31406403,33.48472977,2388.8850 -99.31398773,33.48475266,2357.7430 -99.31372070,33.48479462,2265.8461 -99.31364441,33.48481750,2236.8001 -99.31352234,33.48487473,2184.9820 -99.31340790,33.48485947,2121.6811 -99.31333160,33.48488998,2093.1141 -99.31327820,33.48488998,2064.0641 -99.31320190,33.48492432,2032.8181 -99.31308746,33.48496246,2002.6610 -99.31300354,33.48500061,1972.7040 -99.31290436,33.48506546,1941.9860 -99.31279755,33.48510361,1910.9360 -99.31269836,33.48512650,1879.6821 -99.31256866,33.48515701,1846.7820 -99.31240845,33.48519897,1813.9181 -99.31224060,33.48526764,1782.0330 -99.31206512,33.48534775,1752.3181 -99.31188202,33.48543549,1723.0331 -99.31171417,33.48554230,1694.1930 -99.31150818,33.48563385,1665.8930 -99.31130219,33.48572922,1636.0091 -99.31108856,33.48583603,1605.7241 -99.31089783,33.48593903,1578.9271 -99.31073761,33.48602676,1552.6771 -99.31054688,33.48612976,1525.3810 -99.31038666,33.48622131,1497.1141 -99.31022644,33.48631668,1468.6751 -99.31006622,33.48641205,1441.0380 -99.30992889,33.48650742,1414.2241 -99.30978394,33.48662567,1387.9491 -99.30966187,33.48673630,1359.8701 -99.30955505,33.48684692,1329.8231 -99.30944824,33.48695755,1300.5791 -99.30934906,33.48705673,1271.3050 -99.30925751,33.48717499,1242.8291 -99.30916595,33.48729324,1215.4041 -99.30906677,33.48742676,1189.3210 -99.30896759,33.48756409,1164.4001 -99.30886078,33.48770523,1139.2300 -99.30876923,33.48784637,1113.7810 -99.30866241,33.48799133,1087.5830 -99.30856323,33.48814011,1061.4970 -99.30844116,33.48829269,1033.8530 -99.30831909,33.48844147,1006.0551 -99.30804443,33.48875427,950.3410 -99.30775452,33.48907852,893.6970 -99.30761719,33.48923492,866.8640 -99.30748749,33.48939133,840.0550 -99.30728149,33.48967743,790.4120 -99.30717468,33.48982620,758.3220 -99.30709839,33.48998642,734.8650 -99.30702972,33.49012756,710.0860 -99.30696869,33.49026108,683.4130 -99.30693054,33.49039078,657.1260 -99.30687714,33.49051666,643.5560 -99.30682373,33.49063873,637.8631 -99.30673981,33.49075317,630.6190 -99.30664063,33.49088669,623.1880 -99.30655670,33.49104691,616.7650 -99.30647278,33.49119949,611.1080 -99.30635834,33.49132156,604.7130 -99.30624390,33.49140930,598.0320 -99.30616760,33.49147415,591.5150 -99.30615997,33.49155045,583.4690 -99.30618286,33.49165726,575.3740 -99.30620575,33.49177170,568.1760 -99.30622864,33.49187851,561.7130 -99.30625916,33.49198914,554.9600 -99.30625916,33.49211884,547.8730 -99.30622101,33.49225235,540.4330 -99.30615234,33.49236298,533.8480 -99.30609131,33.49242401,527.4810 -99.30608368,33.49245071,520.2840 -99.30611420,33.49248886,513.1280 -99.30615997,33.49255753,505.9120 -99.30619812,33.49264526,498.6650 -99.30622864,33.49273300,491.5840 -99.30625153,33.49282074,484.6870 -99.30626678,33.49291611,477.5940 -99.30625153,33.49300385,469.9790 -99.30621338,33.49306107,462.0050 -99.30618286,33.49308395,453.7920 -99.30618286,33.49310303,446.3120 -99.30619049,33.49312210,438.7990 -99.30622864,33.49316025,431.0080 -99.30627441,33.49321365,423.1400 -99.30632019,33.49328613,415.6800 -99.30633545,33.49336624,409.3930 -99.30632019,33.49341202,406.4550 -99.30632019,33.49341202,406.6220 -99.30632019,33.49341202,406.7230 -99.30632019,33.49341202,406.5880</coordinates>
			</LineString>
		</Placemark>
	</Document>
</kml>